NORAD_CAT_ID,OBJECT_NAME,OBJECT_TYPE,EPOCH,MEAN_MOTION,ECCENTRICITY,INCLINATION,RA_OF_ASC_NODE,ARG_OF_PERICENTER,MEAN_ANOMALY,BSTAR,MEAN_MOTION_DOT,MEAN_MOTION_DDOT,TLE_LINE0,TLE_LINE1,TLE_LINE2,SEMIMAJOR_AXIS,PERIOD,APOGEE,PERIGEE,DECAYED
53404.0,STARLINK-4509,PAYLOAD,2023-07-08 06:27:53,15.0883955,0.0001008,53.2158,172.9517,79.412,280.6986,6.4693e-05,7.42e-06,0.0,0 STARLINK-4509,1 53404U 22097S   23189.26936954  .00000742  00000-0  64693-4 0  9998,2 53404  53.2158 172.9517 0001008  79.4120 280.6986 15.08839550 50903,6917.882,95.438,540.444,539.049,0.0
53404.0,STARLINK-4509,PAYLOAD,2023-07-09 06:18:40,15.0883671,0.0001096,53.2156,168.4913,84.8435,275.2682,4.7589e-05,4.7e-06,0.0,0 STARLINK-4509,1 53404U 22097S   23190.26297336  .00000470  00000-0  47589-4 0  9997,2 53404  53.2156 168.4913 0001096  84.8435 275.2682 15.08836710 51052,6917.89,95.438,540.514,538.997,0.0
53404.0,STARLINK-4509,PAYLOAD,2023-07-10 15:41:46,15.08842019,0.0001065,53.216,162.2464,85.0957,275.0157,7.5944e-05,9.21e-06,0.0,0 STARLINK-4509,1 53404U 22097S   23191.65400938  .00000921  00000-0  75944-4 0  9992,2 53404  53.2160 162.2464 0001065  85.0957 275.0157 15.08842019 51265,6917.874,95.437,540.476,539.002,0.0
53404.0,STARLINK-4509,PAYLOAD,2023-07-12 04:15:38,15.08843949,0.0001222,53.2163,155.4057,97.3912,262.7219,6.2213e-05,7.02e-06,0.0,0 STARLINK-4509,1 53404U 22097S   23193.17752884  .00000702  00000-0  62213-4 0  9993,2 53404  53.2163 155.4057 0001222  97.3912 262.7219 15.08843949 51492,6917.868,95.437,540.579,538.888,0.0
53404.0,STARLINK-4509,PAYLOAD,2023-07-13 07:17:12,15.08841582,0.0001054,53.2158,150.3516,94.841,265.2703,5.1693e-05,5.35e-06,0.0,0 STARLINK-4509,1 53404U 22097S   23194.30361152  .00000535  00000-0  51693-4 0  9997,2 53404  53.2158 150.3516 0001054  94.8410 265.2703 15.08841582 51664,6917.876,95.437,540.47,539.011,0.0
53404.0,STARLINK-4509,PAYLOAD,2023-07-14 05:32:36,15.08833497,0.0001078,53.2177,146.1907,99.5246,260.5868,2.5212e-06,-2.48e-06,0.0,0 STARLINK-4509,1 53404U 22097S   23195.23098232 -.00000248  00000-0  25212-5 0  9997,2 53404  53.2177 146.1907 0001078  99.5246 260.5868 15.08833497 51809,6917.9,95.438,540.511,539.02,0.0
53404.0,STARLINK-4509,PAYLOAD,2023-07-15 00:37:13,15.0884387,0.0001055,53.2172,142.6214,101.5601,258.551,0.00010782,1.429e-05,0.0,0 STARLINK-4509,1 53404U 22097S   23196.02585540  .00001429  00000-0  10782-3 0  9993,2 53404  53.2172 142.6214 0001055 101.5601 258.5510 15.08843870 51920,6917.869,95.437,540.463,539.004,0.0
53404.0,STARLINK-4509,PAYLOAD,2023-07-15 05:23:22,15.08851919,0.0001026,53.2161,141.7282,98.4333,261.6776,0.00014732,2.058e-05,0.0,0 STARLINK-4509,1 53404U 22097S   23196.22456918  .00002058  00000-0  14732-3 0  9999,2 53404  53.2161 141.7282 0001026  98.4333 261.6776 15.08851919 51952,6917.844,95.437,540.419,538.999,0.0
53404.0,STARLINK-4509,PAYLOAD,2023-07-16 02:03:25,15.08834516,0.0001065,53.2167,137.863,94.0192,266.0922,7.7408e-05,9.44e-06,0.0,0 STARLINK-4509,1 53404U 22097S   23197.08570635  .00000944  00000-0  77408-4 0  9999,2 53404  53.2167 137.8630 0001065  94.0192 266.0922 15.08834516 52080,6917.897,95.438,540.499,539.025,0.0
53404.0,STARLINK-4509,PAYLOAD,2023-07-17 13:01:53,15.08846756,0.0001089,53.2155,131.3217,88.2263,271.8854,0.00012843,1.757e-05,0.0,0 STARLINK-4509,1 53404U 22097S   23198.54297967  .00001757  00000-0  12843-3 0  9999,2 53404  53.2155 131.3217 0001089  88.2263 271.8854 15.08846756 52309,6917.86,95.437,540.478,538.971,0.0
53404.0,STARLINK-4509,PAYLOAD,2023-07-18 00:09:35,15.08841111,0.000124,53.2163,129.2402,86.3145,273.7989,0.0001525,2.14e-05,0.0,0 STARLINK-4509,1 53404U 22097S   23199.00666387  .00002140  00000-0  15250-3 0  9999,2 53404  53.2163 129.2402 0001240  86.3145 273.7989 15.08841111 52374,6917.877,95.437,540.6,538.884,0.0
53404.0,STARLINK-4509,PAYLOAD,2023-07-19 04:46:32,15.08844126,0.0001443,53.2158,123.8872,89.4113,270.7044,7.3578e-05,8.83e-06,0.0,0 STARLINK-4509,1 53404U 22097S   23200.19898289  .00000883  00000-0  73578-4 0  9990,2 53404  53.2158 123.8872 0001443  89.4113 270.7044 15.08844126 52551,6917.868,95.437,540.731,538.735,0.0
53404.0,STARLINK-4509,PAYLOAD,2023-07-20 23:41:57,15.08838499,0.0001398,53.2165,115.8556,99.8204,260.2946,9.3336e-05,1.198e-05,0.0,0 STARLINK-4509,1 53404U 22097S   23201.98746690  .00001198  00000-0  93336-4 0  9990,2 53404  53.2165 115.8556 0001398  99.8204 260.2946 15.08838499 52825,6917.885,95.438,540.717,538.783,0.0
53404.0,STARLINK-4509,PAYLOAD,2023-07-24 02:25:04,15.08835543,0.0001259,53.218,101.8798,85.2275,274.8861,-2.3604e-05,-6.63e-06,0.0,0 STARLINK-4509,1 53404U 22097S   23205.10075162 -.00000663  00000-0 -23604-4 0  9996,2 53404  53.2180 101.8798 0001259  85.2275 274.8861 15.08835543 53788,6917.894,95.438,540.63,538.888,0.0
53404.0,STARLINK-4509,PAYLOAD,2023-07-25 02:15:51,15.08847553,0.0001093,53.2174,97.4176,89.1489,270.9628,4.8771e-05,4.89e-06,0.0,0 STARLINK-4509,1 53404U 22097S   23206.09434463  .00000489  00000-0  48771-4 0  9994,2 53404  53.2174  97.4176 0001093  89.1489 270.9628 15.08847553 53936,6917.857,95.437,540.478,538.966,0.0
53404.0,STARLINK-4509,PAYLOAD,2023-07-26 02:06:39,15.08838235,0.0001477,53.2182,92.9577,77.4192,282.6966,0.00012459,1.695e-05,0.0,0 STARLINK-4509,1 53404U 22097S   23207.08795299  .00001695  00000-0  12459-3 0  9994,2 53404  53.2182  92.9577 0001477  77.4192 282.6966 15.08838235 54086,6917.886,95.438,540.773,538.729,0.0
53404.0,STARLINK-4509,PAYLOAD,2023-07-27 01:57:26,15.08816685,0.0001458,53.2178,88.4989,93.9299,266.186,0.00056086,8.644e-05,0.0,0 STARLINK-4509,1 53404U 22097S   23208.08155201  .00008644  00000-0  56086-3 0  9993,2 53404  53.2178  88.4989 0001458  93.9299 266.1860 15.08816685 53745,6917.952,95.439,540.825,538.808,0.0
53404.0,STARLINK-4509,PAYLOAD,2023-07-28 00:12:50,15.08831486,0.0001312,53.218,84.337,73.0981,287.0155,-6.9269e-05,-1.39e-05,0.0,0 STARLINK-4509,1 53404U 22097S   23209.00892342 -.00001390  00000-0 -69269-4 0  9991,2 53404  53.2180  84.3370 0001312  73.0981 287.0155 15.08831486 53883,6917.906,95.438,540.679,538.864,0.0
53404.0,STARLINK-4509,PAYLOAD,2023-07-28 16:06:41,15.08842351,9.45e-05,53.2168,81.3648,87.9712,272.1389,-4.0154e-05,-9.27e-06,0.0,0 STARLINK-4509,1 53404U 22097S   23209.67131814 -.00000927  00000-0 -40154-4 0  9991,2 53404  53.2168  81.3648 0000945  87.9712 272.1389 15.08842351 53989,6917.873,95.437,540.392,539.084,0.0
53404.0,STARLINK-4509,PAYLOAD,2023-07-29 01:39:00,15.08850056,0.0001034,53.2163,79.5799,77.3424,282.7683,0.00013919,1.929e-05,0.0,0 STARLINK-4509,1 53404U 22097S   23210.06875126  .00001929  00000-0  13919-3 0  9996,2 53404  53.2163  79.5799 0001034  77.3424 282.7683 15.08850056 54046,6917.85,95.437,540.43,538.999,0.0
53404.0,STARLINK-4509,PAYLOAD,2023-07-29 19:08:15,15.08839729,0.0001113,53.2165,76.3074,80.4752,279.6366,0.00013469,1.856e-05,0.0,0 STARLINK-4509,1 53404U 22097S   23210.79739725  .00001856  00000-0  13469-3 0  9999,2 53404  53.2165  76.3074 0001113  80.4752 279.6366 15.08839729 54155,6917.881,95.438,540.516,538.976,0.0
53404.0,STARLINK-4509,PAYLOAD,2023-07-30 18:59:02,15.0881496,9.87e-05,53.218,71.8445,98.0164,262.0941,0.00042331,6.451e-05,0.0,0 STARLINK-4509,1 53404U 22097S   23211.79100683  .00006451  00000-0  42331-3 0  9991,2 53404  53.2180  71.8445 0000987  98.0164 262.0941 15.08814960 54306,6917.957,95.439,540.505,539.139,0.0
53404.0,STARLINK-4509,PAYLOAD,2023-07-30 23:45:11,15.08845724,7.82e-05,53.2177,70.9544,32.7638,327.3403,1.9623e-05,2.5e-07,0.0,0 STARLINK-4509,1 53404U 22097S   23211.98971619  .00000025  00000-0  19623-4 0  9997,2 53404  53.2177  70.9544 0000782  32.7638 327.3403 15.08845724 54339,6917.863,95.437,540.269,539.187,0.0
53404.0,STARLINK-4509,PAYLOAD,2023-07-31 18:49:49,15.08839267,0.0001228,53.2179,67.3868,75.6634,284.4494,4.5768e-06,-2.15e-06,0.0,0 STARLINK-4509,1 53404U 22097S   23212.78460155 -.00000215  00000-0  45768-5 0  9996,2 53404  53.2179  67.3868 0001228  75.6634 284.4494 15.08839267 54459,6917.883,95.438,540.597,538.898,0.0
53404.0,STARLINK-4509,PAYLOAD,2023-08-01 20:15:59,15.08841524,0.0001119,53.217,62.6296,79.3021,280.8097,5.0837e-05,5.21e-06,0.0,0 STARLINK-4509,1 53404U 22097S   23213.84444022  .00000521  00000-0  50837-4 0  9990,2 53404  53.2170  62.6296 0001119  79.3021 280.8097 15.08841524 54619,6917.876,95.437,540.515,538.967,0.0
53404.0,STARLINK-4509,PAYLOAD,2023-08-02 21:42:09,15.08851645,0.0001033,53.2166,57.8714,92.8985,267.2125,0.00016011,2.262e-05,0.0,0 STARLINK-4509,1 53404U 22097S   23214.90427101  .00002262  00000-0  16011-3 0  9996,2 53404  53.2166  57.8714 0001033  92.8985 267.2125 15.08851645 54772,6917.845,95.437,540.424,538.995,0.0
53404.0,STARLINK-4509,PAYLOAD,2023-08-03 18:22:10,15.08840711,0.0001089,53.2157,54.0053,95.0436,265.0681,9.1228e-05,1.164e-05,0.0,0 STARLINK-4509,1 53404U 22097S   23215.76540143  .00001164  00000-0  91228-4 0  9997,2 53404  53.2157  54.0053 0001089  95.0436 265.0681 15.08840711 54904,6917.878,95.438,540.497,538.99,0.0
53404.0,STARLINK-4509,PAYLOAD,2023-08-03 21:32:56,15.08855052,0.0001341,53.2172,53.4104,100.0731,260.0413,-0.00021219,-3.665e-05,0.0,0 STARLINK-4509,1 53404U 22097S   23215.89787720 -.00003665  00000-0 -21219-3 0  9997,2 53404  53.2172  53.4104 0001341 100.0731 260.0413 15.08855052 54921,6917.834,95.437,540.627,538.772,0.0
53404.0,STARLINK-4509,PAYLOAD,2023-08-04 18:12:58,15.0883794,0.0001238,53.2177,49.5435,105.8155,254.2974,-2.1329e-05,-6.27e-06,0.0,0 STARLINK-4509,1 53404U 22097S   23216.75900540 -.00000627  00000-0 -21329-4 0  9998,2 53404  53.2177  49.5435 0001238 105.8155 254.2974 15.08837940 55055,6917.887,95.438,540.608,538.895,0.0
53404.0,STARLINK-4509,PAYLOAD,2023-08-05 18:03:44,15.08848462,0.0001113,53.2176,45.083,97.1196,262.9922,0.00017349,2.475e-05,0.0,0 STARLINK-4509,1 53404U 22097S   23217.75259326  .00002475  00000-0  17349-3 0  9995,2 53404  53.2176  45.0830 0001113  97.1196 262.9922 15.08848462 55201,6917.855,95.437,540.489,538.95,0.0
